{
  "norad_id": 48981,
  "name": "ONEWEB-0263",
  "history": [
    {
      "epoch": "2026-03-28T21:27:48.298464Z",
      "apogee_km": 1199.3496648796408,
      "perigee_km": 1196.1582450559508,
      "latitude_deg": 1.2149628422873826e-05,
      "longitude_deg": 96.48124973529634,
      "height_km": 1200.915218904246,
      "semi_major_axis_km": 7575.890954967796,
      "eccentricity": 0.00021063,
      "inclination_deg": 87.9033,
      "raan_deg": 244.7407,
      "arg_perigee_deg": 99.6614,
      "mean_anomaly_deg": 260.4755,
      "mean_motion_rev_day": 13.16594964
    },
    {
      "epoch": "2026-03-28T23:17:14.439264Z",
      "apogee_km": 1199.3504369174307,
      "perigee_km": 1196.1579563671648,
      "latitude_deg": 2.0243899859546214e-06,
      "longitude_deg": 69.03232327557168,
      "height_km": 1200.9146979083935,
      "semi_major_axis_km": 7575.8911966422975,
      "eccentricity": 0.0002107,
      "inclination_deg": 87.9033,
      "raan_deg": 244.7256,
      "arg_perigee_deg": 99.6304,
      "mean_anomaly_deg": 260.5065,
      "mean_motion_rev_day": 13.16594901
    },
    {
      "epoch": "2026-03-30T04:28:12.562464Z",
      "apogee_km": 1199.3423650859331,
      "perigee_km": 1196.1648850399688,
      "latitude_deg": -1.2268632711743173e-05,
      "longitude_deg": -10.150752035410644,
      "height_km": 1200.9024117551062,
      "semi_major_axis_km": 7575.890625062951,
      "eccentricity": 0.00020971,
      "inclination_deg": 87.9033,
      "raan_deg": 244.4832,
      "arg_perigee_deg": 99.2475,
      "mean_anomaly_deg": 260.8893,
      "mean_motion_rev_day": 13.1659505
    },
    {
      "epoch": "2026-03-30T09:56:31.012512Z",
      "apogee_km": 1199.352686985204,
      "perigee_km": 1196.1580846839452,
      "latitude_deg": -5.321554425780982e-05,
      "longitude_deg": -92.49784696279005,
      "height_km": 1200.9001687695225,
      "semi_major_axis_km": 7575.892385834574,
      "eccentricity": 0.00021084,
      "inclination_deg": 87.9032,
      "raan_deg": 244.4377,
      "arg_perigee_deg": 99.0527,
      "mean_anomaly_deg": 261.0842,
      "mean_motion_rev_day": 13.16594591
    },
    {
      "epoch": "2026-03-30T20:53:07.794240Z",
      "apogee_km": 1199.3612494600093,
      "perigee_km": 1196.1480107840098,
      "latitude_deg": 1.5910112354828273e-05,
      "longitude_deg": 102.80866323397514,
      "height_km": 1200.904194889808,
      "semi_major_axis_km": 7575.89163012201,
      "eccentricity": 0.00021207,
      "inclination_deg": 87.9034,
      "raan_deg": 244.3469,
      "arg_perigee_deg": 99.1735,
      "mean_anomaly_deg": 260.9636,
      "mean_motion_rev_day": 13.16594788
    },
    {
      "epoch": "2026-03-31T20:35:47.531328Z",
      "apogee_km": 1199.368001717493,
      "perigee_km": 1196.1421868637453,
      "latitude_deg": -1.8249040738376964e-05,
      "longitude_deg": 105.9724144122988,
      "height_km": 1200.8884838784418,
      "semi_major_axis_km": 7575.892094290619,
      "eccentricity": 0.0002129,
      "inclination_deg": 87.9034,
      "raan_deg": 244.15,
      "arg_perigee_deg": 98.5566,
      "mean_anomaly_deg": 261.5806,
      "mean_motion_rev_day": 13.16594667
    },
    {
      "epoch": "2026-04-01T16:39:34.958304Z",
      "apogee_km": 1199.3706078914474,
      "perigee_km": 1196.1372176498771,
      "latitude_deg": 2.78050385778275e-06,
      "longitude_deg": 164.0341385488265,
      "height_km": 1200.8776804570628,
      "semi_major_axis_km": 7575.890912770662,
      "eccentricity": 0.0002134,
      "inclination_deg": 87.9036,
      "raan_deg": 243.9833,
      "arg_perigee_deg": 98.1923,
      "mean_anomaly_deg": 261.945,
      "mean_motion_rev_day": 13.16594975
    },
    {
      "epoch": "2026-04-02T16:22:14.690208Z",
      "apogee_km": 1199.3681145417895,
      "perigee_km": 1196.1395728998295,
      "latitude_deg": -6.607221938935606e-05,
      "longitude_deg": 167.19790962168054,
      "height_km": 1200.8750460558924,
      "semi_major_axis_km": 7575.890843720809,
      "eccentricity": 0.00021308,
      "inclination_deg": 87.9038,
      "raan_deg": 243.7864,
      "arg_perigee_deg": 98.1121,
      "mean_anomaly_deg": 262.0251,
      "mean_motion_rev_day": 13.16594993
    },
    {
      "epoch": "2026-04-02T21:50:33.073728Z",
      "apogee_km": 1199.373062546886,
      "perigee_km": 1196.132399955447,
      "latitude_deg": -6.445055687746411e-05,
      "longitude_deg": 84.85119409982113,
      "height_km": 1200.8711901412669,
      "semi_major_axis_km": 7575.889731251166,
      "eccentricity": 0.00021388,
      "inclination_deg": 87.904,
      "raan_deg": 243.741,
      "arg_perigee_deg": 97.9841,
      "mean_anomaly_deg": 262.1532,
      "mean_motion_rev_day": 13.16595283
    },
    {
      "epoch": "2026-04-03T16:04:54.435936Z",
      "apogee_km": 1199.3644763980565,
      "perigee_km": 1196.1447224682988,
      "latitude_deg": 7.178946157477902e-05,
      "longitude_deg": 170.3619297817935,
      "height_km": 1200.8613112552778,
      "semi_major_axis_km": 7575.891599433177,
      "eccentricity": 0.0002125,
      "inclination_deg": 87.9047,
      "raan_deg": 243.5898,
      "arg_perigee_deg": 97.6142,
      "mean_anomaly_deg": 262.5231,
      "mean_motion_rev_day": 13.16594796
    },
    {
      "epoch": "2026-04-03T23:22:38.954208Z",
      "apogee_km": 1199.3764803506901,
      "perigee_km": 1196.1291509401117,
      "latitude_deg": 5.4481029512815486e-05,
      "longitude_deg": 60.56611259685393,
      "height_km": 1200.8560083629739,
      "semi_major_axis_km": 7575.889815645401,
      "eccentricity": 0.00021432,
      "inclination_deg": 87.9041,
      "raan_deg": 243.5291,
      "arg_perigee_deg": 97.4252,
      "mean_anomaly_deg": 262.7123,
      "mean_motion_rev_day": 13.16595261
    },
    {
      "epoch": "2026-04-05T10:01:55.461792Z",
      "apogee_km": 1199.3625968028773,
      "perigee_km": 1196.1393595036907,
      "latitude_deg": 2.07321806104458e-06,
      "longitude_deg": -100.96328586483095,
      "height_km": 1200.8350314955835,
      "semi_major_axis_km": 7575.887978153283,
      "eccentricity": 0.00021273,
      "inclination_deg": 87.9046,
      "raan_deg": 243.2417,
      "arg_perigee_deg": 96.7941,
      "mean_anomaly_deg": 263.3432,
      "mean_motion_rev_day": 13.1659574
    },
    {
      "epoch": "2026-04-05T19:09:06.152832Z",
      "apogee_km": 1199.3531155930114,
      "perigee_km": 1196.1500299044537,
      "latitude_deg": 4.088113140922506e-05,
      "longitude_deg": 121.79193870863023,
      "height_km": 1200.8271220179472,
      "semi_major_axis_km": 7575.888572748732,
      "eccentricity": 0.0002114,
      "inclination_deg": 87.9047,
      "raan_deg": 243.166,
      "arg_perigee_deg": 96.5302,
      "mean_anomaly_deg": 263.607,
      "mean_motion_rev_day": 13.16595585
    },
    {
      "epoch": "2026-04-05T19:09:06.153696Z",
      "apogee_km": 1199.3534186285542,
      "perigee_km": 1196.1497268689109,
      "latitude_deg": 3.630285598836345e-05,
      "longitude_deg": 121.7919349321205,
      "height_km": 1200.8271564884133,
      "semi_major_axis_km": 7575.888572748732,
      "eccentricity": 0.00021144,
      "inclination_deg": 87.9047,
      "raan_deg": 243.166,
      "arg_perigee_deg": 96.5302,
      "mean_anomaly_deg": 263.607,
      "mean_motion_rev_day": 13.16595585
    }
  ]
}